[Satellite]
VERSION=1.1
NAME=CZ-6A DEB
NICKNAME=CZ-6A DEB
TLE1=1 54264U 22151F   22342.00404759  .00000400  00000+0  49463-3 0  9996
TLE2=2 54264  98.5700 342.5003 0355985  24.0406 337.6900 13.46080903  3476
STATUS=0
